start=new Date('2022-09-30T00:00:00.000Z').valueOf();
sats=[{"ELEMENT_SET_NO":"999","MEAN_MOTION_DDOT":"0.0000000000000","OBJECT_NAME":"STARLINK-2463","PERIOD":"95.593","SITE":"AFETR","MEAN_MOTION":"15.06391349","BSTAR":"-0.00003801200000","OBJECT_ID":"2021-027AG","TLE_LINE2":"2 48122  53.0557  38.8414 0001385  64.1260 295.9872 15.06391349 83192","TLE_LINE1":"1 48122U 21027AG  22272.83190303 -.00000847  00000-0 -38012-4 0  9990","GP_ID":"213835491","MEAN_ANOMALY":"295.9872","DECAY_DATE":null,"RCS_SIZE":"LARGE","CLASSIFICATION_TYPE":"U","EPOCH":"2022-09-29T19:57:56.421792","RA_OF_ASC_NODE":"38.8414","LAUNCH_DATE":"2021-04-07","OBJECT_TYPE":"PAYLOAD","TIME_SYSTEM":"UTC","MEAN_MOTION_DOT":"-0.00000847","REV_AT_EPOCH":"8319","EPHEMERIS_TYPE":"0","APOAPSIS":"548.199","CENTER_NAME":"EARTH","REF_FRAME":"TEME","PERIAPSIS":"546.281","COUNTRY_CODE":"US","NORAD_CAT_ID":"48122","SEMIMAJOR_AXIS":"6925.375","INCLINATION":"53.0557","MEAN_ELEMENT_THEORY":"SGP4","ARG_OF_PERICENTER":"64.1260","ECCENTRICITY":"0.00013850","FILE":"3587117"},{"RCS_SIZE":"LARGE","DECAY_DATE":null,"MEAN_ANOMALY":"299.7034","TLE_LINE2":"2 48123  53.0563  35.3281 0001431  60.4098 299.7034 15.06379727 82809","GP_ID":"213779715","TLE_LINE1":"1 48123U 21027AH  22272.50985848 -.00001883  00000-0 -10762-3 0  9993","OBJECT_ID":"2021-027AH","BSTAR":"-0.00010762000000","ELEMENT_SET_NO":"999","MEAN_MOTION_DDOT":"0.0000000000000","OBJECT_NAME":"STARLINK-2464","SITE":"AFETR","PERIOD":"95.593","MEAN_MOTION":"15.06379727","FILE":"3586762","ARG_OF_PERICENTER":"60.4098","ECCENTRICITY":"0.00014310","INCLINATION":"53.0563","SEMIMAJOR_AXIS":"6925.411","MEAN_ELEMENT_THEORY":"SGP4","COUNTRY_CODE":"US","NORAD_CAT_ID":"48123","APOAPSIS":"548.267","CENTER_NAME":"EARTH","REF_FRAME":"TEME","PERIAPSIS":"546.285","TIME_SYSTEM":"UTC","MEAN_MOTION_DOT":"-0.00001883","REV_AT_EPOCH":"8280","EPHEMERIS_TYPE":"0","LAUNCH_DATE":"2021-04-07","OBJECT_TYPE":"PAYLOAD","CLASSIFICATION_TYPE":"U","EPOCH":"2022-09-29T12:14:11.772672","RA_OF_ASC_NODE":"35.3281"},{"FILE":"3587117","ARG_OF_PERICENTER":"66.8323","ECCENTRICITY":"0.00015510","INCLINATION":"53.0538","SEMIMAJOR_AXIS":"6925.412","MEAN_ELEMENT_THEORY":"SGP4","COUNTRY_CODE":"US","NORAD_CAT_ID":"48124","CENTER_NAME":"EARTH","APOAPSIS":"548.351","PERIAPSIS":"546.203","REF_FRAME":"TEME","TIME_SYSTEM":"UTC","EPHEMERIS_TYPE":"0","MEAN_MOTION_DOT":"-0.00000941","REV_AT_EPOCH":"8310","LAUNCH_DATE":"2021-04-07","OBJECT_TYPE":"PAYLOAD","RA_OF_ASC_NODE":"44.1359","CLASSIFICATION_TYPE":"U","EPOCH":"2022-09-29T18:35:00.876480","RCS_SIZE":"LARGE","DECAY_DATE":null,"MEAN_ANOMALY":"293.2830","GP_ID":"213834490","TLE_LINE1":"1 48124U 21027AJ  22272.77431570 -.00000941  00000-0 -44279-4 0  9996","TLE_LINE2":"2 48124  53.0538  44.1359 0001551  66.8323 293.2830 15.06379327 83103","OBJECT_ID":"2021-027AJ","BSTAR":"-0.00004427900000","OBJECT_NAME":"STARLINK-2465","MEAN_MOTION_DDOT":"0.0000000000000","ELEMENT_SET_NO":"999","MEAN_MOTION":"15.06379327","SITE":"AFETR","PERIOD":"95.593"},{"MEAN_ANOMALY":"274.7602","TLE_LINE2":"2 48125  53.0557  56.1005 0001039  85.3506 274.7602 15.06403644 82915","GP_ID":"213804318","TLE_LINE1":"1 48125U 21027AK  22272.39008005 -.00001337  00000-0 -70877-4 0  9991","RCS_SIZE":"LARGE","DECAY_DATE":null,"BSTAR":"-0.00007087700000","SITE":"AFETR","PERIOD":"95.592","MEAN_MOTION":"15.06403644","ELEMENT_SET_NO":"999","MEAN_MOTION_DDOT":"0.0000000000000","OBJECT_NAME":"STARLINK-2466","OBJECT_ID":"2021-027AK","MEAN_ELEMENT_THEORY":"SGP4","INCLINATION":"53.0557","SEMIMAJOR_AXIS":"6925.337","NORAD_CAT_ID":"48125","COUNTRY_CODE":"US","FILE":"3586894","ECCENTRICITY":"0.00010390","ARG_OF_PERICENTER":"85.3506","OBJECT_TYPE":"PAYLOAD","LAUNCH_DATE":"2021-04-07","EPOCH":"2022-09-29T09:21:42.916320","CLASSIFICATION_TYPE":"U","RA_OF_ASC_NODE":"56.1005","REF_FRAME":"TEME","PERIAPSIS":"546.483","APOAPSIS":"547.922","CENTER_NAME":"EARTH","MEAN_MOTION_DOT":"-0.00001337","REV_AT_EPOCH":"8291","EPHEMERIS_TYPE":"0","TIME_SYSTEM":"UTC"},{"BSTAR":"0.00007002600000","PERIOD":"95.593","SITE":"AFETR","MEAN_MOTION":"15.06392932","ELEMENT_SET_NO":"999","MEAN_MOTION_DDOT":"0.0000000000000","OBJECT_NAME":"STARLINK-2467","OBJECT_ID":"2021-027AL","MEAN_ANOMALY":"281.8834","TLE_LINE2":"2 48126  53.0569  33.6836 0001500  78.2324 281.8834 15.06392932 83276","TLE_LINE1":"1 48126U 21027AL  22272.87475804  .00000762  00000-0  70026-4 0  9995","GP_ID":"213835992","RCS_SIZE":"LARGE","DECAY_DATE":null,"OBJECT_TYPE":"PAYLOAD","LAUNCH_DATE":"2021-04-07","RA_OF_ASC_NODE":"33.6836","EPOCH":"2022-09-29T20:59:39.094656","CLASSIFICATION_TYPE":"U","REF_FRAME":"TEME","PERIAPSIS":"546.196","APOAPSIS":"548.274","CENTER_NAME":"EARTH","MEAN_MOTION_DOT":"0.00000762","REV_AT_EPOCH":"8327","EPHEMERIS_TYPE":"0","TIME_SYSTEM":"UTC","MEAN_ELEMENT_THEORY":"SGP4","SEMIMAJOR_AXIS":"6925.370","INCLINATION":"53.0569","NORAD_CAT_ID":"48126","COUNTRY_CODE":"US","FILE":"3587117","ECCENTRICITY":"0.00015000","ARG_OF_PERICENTER":"78.2324"},{"GP_ID":"213835735","TLE_LINE1":"1 48127U 21027AM  22272.66651367 -.00000350  00000-0 -46204-5 0  9990","TLE_LINE2":"2 48127  53.0558  54.6332 0001857  66.4570 293.6614 15.06382411 82958","MEAN_ANOMALY":"293.6614","DECAY_DATE":null,"RCS_SIZE":"LARGE","OBJECT_NAME":"STARLINK-2468","MEAN_MOTION_DDOT":"0.0000000000000","ELEMENT_SET_NO":"999","MEAN_MOTION":"15.06382411","PERIOD":"95.593","SITE":"AFETR","BSTAR":"-0.00000462040000","OBJECT_ID":"2021-027AM","COUNTRY_CODE":"US","NORAD_CAT_ID":"48127","INCLINATION":"53.0558","SEMIMAJOR_AXIS":"6925.402","MEAN_ELEMENT_THEORY":"SGP4","ARG_OF_PERICENTER":"66.4570","ECCENTRICITY":"0.00018570","FILE":"3587117","RA_OF_ASC_NODE":"54.6332","CLASSIFICATION_TYPE":"U","EPOCH":"2022-09-29T15:59:46.781088","LAUNCH_DATE":"2021-04-07","OBJECT_TYPE":"PAYLOAD","TIME_SYSTEM":"UTC","EPHEMERIS_TYPE":"0","MEAN_MOTION_DOT":"-0.00000350","REV_AT_EPOCH":"8295","CENTER_NAME":"EARTH","APOAPSIS":"548.554","PERIAPSIS":"545.981","REF_FRAME":"TEME"},{"OBJECT_ID":"2021-027AN","MEAN_MOTION":"15.06395825","SITE":"AFETR","PERIOD":"95.592","MEAN_MOTION_DDOT":"0.0000000000000","OBJECT_NAME":"STARLINK-2469","ELEMENT_SET_NO":"999","BSTAR":"0.00008454600000","DECAY_DATE":null,"RCS_SIZE":"LARGE","TLE_LINE1":"1 48128U 21027AN  22272.51446127  .00000978  00000-0  84546-4 0  9995","GP_ID":"213778161","TLE_LINE2":"2 48128  53.0547 345.3938 0001613  59.2769 300.8378 15.06395825 83513","MEAN_ANOMALY":"300.8378","EPHEMERIS_TYPE":"0","REV_AT_EPOCH":"8351","MEAN_MOTION_DOT":"0.00000978","TIME_SYSTEM":"UTC","PERIAPSIS":"546.109","REF_FRAME":"TEME","CENTER_NAME":"EARTH","APOAPSIS":"548.343","RA_OF_ASC_NODE":"345.3938","EPOCH":"2022-09-29T12:20:49.453728","CLASSIFICATION_TYPE":"U","OBJECT_TYPE":"PAYLOAD","LAUNCH_DATE":"2021-04-07","ECCENTRICITY":"0.00016130","ARG_OF_PERICENTER":"59.2769","FILE":"3586697","NORAD_CAT_ID":"48128","COUNTRY_CODE":"US","MEAN_ELEMENT_THEORY":"SGP4","SEMIMAJOR_AXIS":"6925.361","INCLINATION":"53.0547"},{"DECAY_DATE":null,"RCS_SIZE":"LARGE","TLE_LINE1":"1 48129U 21027AP  22272.79180165  .00004248  00000-0  30378-3 0  9990","GP_ID":"213835241","TLE_LINE2":"2 48129  53.0561  54.0627 0001304  72.0609 288.0522 15.06414050 82971","MEAN_ANOMALY":"288.0522","OBJECT_ID":"2021-027AP","OBJECT_NAME":"STARLINK-2471","MEAN_MOTION_DDOT":"0.0000000000000","ELEMENT_SET_NO":"999","MEAN_MOTION":"15.06414050","SITE":"AFETR","PERIOD":"95.591","BSTAR":"0.00030378000000","ARG_OF_PERICENTER":"72.0609","ECCENTRICITY":"0.00013040","FILE":"3587117","COUNTRY_CODE":"US","NORAD_CAT_ID":"48129","SEMIMAJOR_AXIS":"6925.305","INCLINATION":"53.0561","MEAN_ELEMENT_THEORY":"SGP4","TIME_SYSTEM":"UTC","EPHEMERIS_TYPE":"0","REV_AT_EPOCH":"8297","MEAN_MOTION_DOT":"0.00004248","CENTER_NAME":"EARTH","APOAPSIS":"548.074","PERIAPSIS":"546.267","REF_FRAME":"TEME","RA_OF_ASC_NODE":"54.0627","CLASSIFICATION_TYPE":"U","EPOCH":"2022-09-29T19:00:11.662560","LAUNCH_DATE":"2021-04-07","OBJECT_TYPE":"PAYLOAD"},{"COUNTRY_CODE":"US","NORAD_CAT_ID":"48130","INCLINATION":"53.0563","SEMIMAJOR_AXIS":"6925.386","MEAN_ELEMENT_THEORY":"SGP4","ARG_OF_PERICENTER":"76.1465","ECCENTRICITY":"0.00013030","FILE":"3586894","EPOCH":"2022-09-29T10:47:14.214048","CLASSIFICATION_TYPE":"U","RA_OF_ASC_NODE":"60.6022","LAUNCH_DATE":"2021-04-07","OBJECT_TYPE":"PAYLOAD","TIME_SYSTEM":"UTC","EPHEMERIS_TYPE":"0","MEAN_MOTION_DOT":"0.00000633","REV_AT_EPOCH":"8285","CENTER_NAME":"EARTH","APOAPSIS":"548.154","PERIAPSIS":"546.349","REF_FRAME":"TEME","GP_ID":"213804069","TLE_LINE1":"1 48130U 21027AQ  22272.44947007  .00000633  00000-0  61419-4 0  9995","TLE_LINE2":"2 48130  53.0563  60.6022 0001303  76.1465 283.9668 15.06387678 82858","MEAN_ANOMALY":"283.9668","DECAY_DATE":null,"RCS_SIZE":"LARGE","MEAN_MOTION_DDOT":"0.0000000000000","OBJECT_NAME":"STARLINK-2472","ELEMENT_SET_NO":"999","MEAN_MOTION":"15.06387678","PERIOD":"95.593","SITE":"AFETR","BSTAR":"0.00006141900000","OBJECT_ID":"2021-027AQ"},{"OBJECT_ID":"2021-027AR","BSTAR":"-0.00020345000000","SITE":"AFETR","PERIOD":"95.593","MEAN_MOTION":"15.06381106","ELEMENT_SET_NO":"999","MEAN_MOTION_DDOT":"0.0000000000000","OBJECT_NAME":"STARLINK-2473","RCS_SIZE":"LARGE","DECAY_DATE":null,"MEAN_ANOMALY":"294.9808","TLE_LINE2":"2 48131  53.0553  33.7043 0001485  65.1335 294.9808 15.06381106 83261","TLE_LINE1":"1 48131U 21027AR  22272.86738981 -.00003309  00000-0 -20345-3 0  9998","GP_ID":"213836236","REF_FRAME":"TEME","PERIAPSIS":"546.243","APOAPSIS":"548.300","CENTER_NAME":"EARTH","REV_AT_EPOCH":"8326","MEAN_MOTION_DOT":"-0.00003309","EPHEMERIS_TYPE":"0","TIME_SYSTEM":"UTC","OBJECT_TYPE":"PAYLOAD","LAUNCH_DATE":"2021-04-07","EPOCH":"2022-09-29T20:49:02.479584","RA_OF_ASC_NODE":"33.7043","CLASSIFICATION_TYPE":"U","FILE":"3587117","ECCENTRICITY":"0.00014850","ARG_OF_PERICENTER":"65.1335","MEAN_ELEMENT_THEORY":"SGP4","INCLINATION":"53.0553","SEMIMAJOR_AXIS":"6925.406","NORAD_CAT_ID":"48131","COUNTRY_CODE":"US"}];
